        SPCS","OBJECT_NAME":"STARLINK-2382","OBJECT_ID":"2021-018Q","CENTER_NAME":"EARTH","REF_FRAME":"TEME","TIME_SYSTEM":"UTC","MEAN_ELEMENT_THEORY":"SGP4","EPOCH":"2021-10-17T05:50:13.971264","MEAN_MOTION":15.06382525,"ECCENTRICITY":0.0001626,"INCLINATION":53.0555,"RA_OF_ASC_NODE":239.2483,"ARG_OF_PERICENTER":57.8302,"MEAN_ANOMALY":302.2845,"EPHEMERIS_TYPE":0,"CLASSIFICATION_TYPE":"U","NORAD_CAT_ID":47801,"ELEMENT_SET_NO":999,"REV_AT_EPOCH":3463,"BSTAR":0.00012618,"MEAN_MOTION_DOT":0.00001598,"MEAN_MOTION_DDOT":0,"SEMIMAJOR_AXIS":6925.402,"PERIOD":95.593,"APOAPSIS":548.393,"PERIAPSIS":546.141,"OBJECT_TYPE":"PAYLOAD","RCS_SIZE":"LARGE","COUNTRY_CODE":"US","LAUNCH_DATE":"2021-03-11","SITE":"AFETR","DECAY_DATE":null,"DECAYED":0,"FILE":3167484,"GP_ID":187376727,"TLE_LINE0":"0
        STARLINK-2382","TLE_LINE1":"1 47801U 21018Q   21290.24321726  .00001598  00000-0  12618-3
        0  9997","TLE_LINE2":"2 47801  53.0555 239.2483 0001626  57.8302 302.2845
        15.06382525 34633"},"height_km":566.700693746132,"latitude":-53.1960739337629,"launch":"600f9a718f798e2a4d5f979d","longitude":-126.44799798493607,"velocity_kms":7.577083430070925,"version":"v1.0","id":"6053aba97112b20006970e26"},{"spaceTrack":{"CCSDS_OMM_VERS":"2.0","COMMENT":"GENERATED
        VIA SPACE-TRACK.ORG API","CREATION_DATE":"2021-10-17T02:25:50","ORIGINATOR":"18
        SPCS","OBJECT_NAME":"STARLINK-2390","OBJECT_ID":"2021-018Y","CENTER_NAME":"EARTH","REF_FRAME":"TEME","TIME_SYSTEM":"UTC","MEAN_ELEMENT_THEORY":"SGP4","EPOCH":"2021-10-16T07:29:23.197920","MEAN_MOTION":15.06386869,"ECCENTRICITY":0.0001454,"INCLINATION":53.0547,"RA_OF_ASC_NODE":258.4269,"ARG_OF_PERICENTER":67.2394,"MEAN_ANOMALY":292.8748,"EPHEMERIS_TYPE":0,"CLASSIFICATION_TYPE":"U","NORAD_CAT_ID":47809,"ELEMENT_SET_NO":999,"REV_AT_EPOCH":3468,"BSTAR":0.000031473,"MEAN_MOTION_DOT":0.00000187,"MEAN_MOTION_DDOT":0,"SEMIMAJOR_AXIS":6925.389,"PERIOD":95.593,"APOAPSIS":548.261,"PERIAPSIS":546.247,"OBJECT_TYPE":"PAYLOAD","RCS_SIZE":"LARGE","COUNTRY_CODE":"US","LAUNCH_DATE":"2021-03-11","SITE":"AFETR","DECAY_DATE":null,"DECAYED":0,"FILE":3166610,"GP_ID":187357498,"TLE_LINE0":"0
        STARLINK-2390","TLE_LINE1":"1 47809U 21018Y   21289.31207405  .00000187  00000-0  31473-4
        0  9992","TLE_LINE2":"2 47809  53.0547 258.4269 0001454  67.2394 292.8748
        15.06386869 34688"},"height_km":565.8141657090137,"latitude":-51.21071381028742,"launch":"600f9a718f798e2a4d5f979d","longitude":-91.53704000024534,"velocity_kms":7.577611819915836,"version":"v1.0","id":"6053aba97112b20006970e37"},{"spaceTrack":{"CCSDS_OMM_VERS":"2.0","COMMENT":"GENERATED
        VIA SPACE-TRACK.ORG API","CREATION_DATE":"2021-10-17T15:36:14","ORIGINATOR":"18
        SPCS","OBJECT_NAME":"STARLINK-2415","OBJECT_ID":"2021-018AT","CENTER_NAME":"EARTH","REF_FRAME":"TEME","TIME_SYSTEM":"UTC","MEAN_ELEMENT_THEORY":"SGP4","EPOCH":"2021-10-17T06:06:49.634496","MEAN_MOTION":15.06388298,"ECCENTRICITY":0.0001556,"INCLINATION":53.0554,"RA_OF_ASC_NODE":264.2042,"ARG_OF_PERICENTER":71.1552,"MEAN_ANOMALY":288.9605,"EPHEMERIS_TYPE":0,"CLASSIFICATION_TYPE":"U","NORAD_CAT_ID":47828,"ELEMENT_SET_NO":999,"REV_AT_EPOCH":3429,"BSTAR":-0.0000067458,"MEAN_MOTION_DOT":-0.00000382,"MEAN_MOTION_DDOT":0,"SEMIMAJOR_AXIS":6925.384,"PERIOD":95.593,"APOAPSIS":548.327,"PERIAPSIS":546.172,"OBJECT_TYPE":"PAYLOAD","RCS_SIZE":"LARGE","COUNTRY_CODE":"US","LAUNCH_DATE":"2021-03-11","SITE":"AFETR","DECAY_DATE":null,"DECAYED":0,"FILE":3167299,"GP_ID":187372854,"TLE_LINE0":"0
        STARLINK-2415","TLE_LINE1":"1 47828U 21018AT  21290.25474114 -.00000382  00000-0
        -67458-5 0  9993","TLE_LINE2":"2 47828  53.0554 264.2042 0001556  71.1552
        288.9605 15.06388298 34297"},"height_km":554.3325805638524,"latitude":-22.341727232281748,"launch":"600f9a718f798e2a4d5f979d","longitude":-175.07475447113524,"velocity_kms":7.5841857368079,"version":"v1.0","id":"6053aba97112b20006970e36"},{"spaceTrack":{"CCSDS_OMM_VERS":"2.0","COMMENT":"GENERATED
        VIA SPACE-TRACK.ORG API","CREATION_DATE":"2021-10-17T02:25:50","ORIGINATOR":"18
        SPCS","OBJECT_NAME":"STARLINK-2347","OBJECT_ID":"2021-018J","CENTER_NAME":"EARTH","REF_FRAME":"TEME","TIME_SYSTEM":"UTC","MEAN_ELEMENT_THEORY":"SGP4","EPOCH":"2021-10-16T07:32:01.588128","MEAN_MOTION":15.06385981,"ECCENTRICITY":0.0001493,"INCLINATION":53.0558,"RA_OF_ASC_NODE":238.4219,"ARG_OF_PERICENTER":69.1775,"MEAN_ANOMALY":290.9373,"EPHEMERIS_TYPE":0,"CLASSIFICATION_TYPE":"U","NORAD_CAT_ID":47795,"ELEMENT_SET_NO":999,"REV_AT_EPOCH":3496,"BSTAR":0.00012991,"MEAN_MOTION_DOT":0.00001653,"MEAN_MOTION_DDOT":0,"SEMIMAJOR_AXIS":6925.392,"PERIOD":95.593,"APOAPSIS":548.29,"PERIAPSIS":546.223,"OBJECT_TYPE":"PAYLOAD","RCS_SIZE":"LARGE","COUNTRY_CODE":"US","LAUNCH_DATE":"2021-03-11","SITE":"AFETR","DECAY_DATE":null,"DECAYED":0,"FILE":3166610,"GP_ID":187356994,"TLE_LINE0":"0
        STARLINK-2347","TLE_LINE1":"1 47795U 21018J   21289.31390727  .00001653  00000-0  12991-3
        0  9998","TLE_LINE2":"2 47795  53.0558 238.4219 0001493  69.1775 290.9373
        15.06385981 34962"},"height_km":566.6557597873507,"latitude":-53.09568976313722,"launch":"600f9a718f798e2a4d5f979d","longitude":-127.84269173722384,"velocity_kms":7.577098825497922,"version":"v1.0","id":"6053aba97112b20006970e42"},{"spaceTrack":{"CCSDS_OMM_VERS":"2.0","COMMENT":"GENERATED
        VIA SPACE-TRACK.ORG API","CREATION_DATE":"2021-10-17T15:36:14","ORIGINATOR":"18
        SPCS","OBJECT_NAME":"STARLINK-2377","OBJECT_ID":"2021-018L","CENTER_NAME":"EARTH","REF_FRAME":"TEME","TIME_SYSTEM":"UTC","MEAN_ELEMENT_THEORY":"SGP4","EPOCH":"2021-10-17T07:03:15.269472","MEAN_MOTION":15.06377821,"ECCENTRICITY":0.0001455,"INCLINATION":53.0548,"RA_OF_ASC_NODE":259.0169,"ARG_OF_PERICENTER":73.3546,"MEAN_ANOMALY":286.7602,"EPHEMERIS_TYPE":0,"CLASSIFICATION_TYPE":"U","NORAD_CAT_ID":47797,"ELEMENT_SET_NO":999,"REV_AT_EPOCH":3436,"BSTAR":0.00010282,"MEAN_MOTION_DOT":0.00001249,"MEAN_MOTION_DDOT":0,"SEMIMAJOR_AXIS":6925.417,"PERIOD":95.594,"APOAPSIS":548.289,"PERIAPSIS":546.274,"OBJECT_TYPE":"PAYLOAD","RCS_SIZE":"MEDIUM","COUNTRY_CODE":"US","LAUNCH_DATE":"2021-03-11","SITE":"AFETR","DECAY_DATE":null,"DECAYED":0,"FILE":3167227,"GP_ID":187370462,"TLE_LINE0":"0
        STARLINK-2377","TLE_LINE1":"1 47797U 21018L   21290.29392673  .00001249  00000-0  10282-3
        0  9993","TLE_LINE2":"2 47797  53.0548 259.0169 0001455  73.3546 286.7602
        15.06377821 34363"},"height_km":548.5165073558946,"latitude":-3.7053223199309637,"launch":"600f9a718f798e2a4d5f979d","longitude":-20.763831130781394,"velocity_kms":7.588758473925689,"version":"v1.0","id":"6053aba97112b20006970e44"},{"spaceTrack":{"CCSDS_OMM_VERS":"2.0","COMMENT":"GENERATED
        VIA SPACE-TRACK.ORG API","CREATION_DATE":"2021-10-17T02:25:50","ORIGINATOR":"18
        SPCS","OBJECT_NAME":"STARLINK-2380","OBJECT_ID":"2021-018N","CENTER_NAME":"EARTH","REF_FRAME":"TEME","TIME_SYSTEM":"UTC","MEAN_ELEMENT_THEORY":"SGP4","EPOCH":"2021-10-16T06:28:19.964928","MEAN_MOTION":15.06390173,"ECCENTRICITY":0.0001357,"INCLINATION":53.0568,"RA_OF_ASC_NODE":238.6296,"ARG_OF_PERICENTER":69.8263,"MEAN_ANOMALY":290.2872,"EPHEMERIS_TYPE":0,"CLASSIFICATION_TYPE":"U","NORAD_CAT_ID":47799,"ELEMENT_SET_NO":999,"REV_AT_EPOCH":3489,"BSTAR":0.000036541,"MEAN_MOTION_DOT":0.00000263,"MEAN_MOTION_DDOT":0,"SEMIMAJOR_AXIS":6925.379,"PERIOD":95.593,"APOAPSIS":548.183,"PERIAPSIS":546.304,"OBJECT_TYPE":"PAYLOAD","RCS_SIZE":"LARGE","COUNTRY_CODE":"US","LAUNCH_DATE":"2021-03-11","SITE":"AFETR","DECAY_DATE":null,"DECAYED":0,"FILE":3166610,"GP_ID":187356495,"TLE_LINE0":"0
        STARLINK-2380","TLE_LINE1":"1 47799U 21018N   21289.26967552  .00000263  00000-0  36541-4
        0  9996","TLE_LINE2":"2 47799  53.0568 238.6296 0001357  69.8263 290.2872
        15.06390173 34890"},"height_km":547.6218526681168,"latitude":21.221366495130948,"launch":"600f9a718f798e2a4d5f979d","longitude":120.14398853872046,"velocity_kms":7.591359852464,"version":"v1.0","id":"6053aba97112b20006970e4f"},{"spaceTrack":{"CCSDS_OMM_VERS":"2.0","COMMENT":"GENERATED
        VIA SPACE-TRACK.ORG API","CREATION_DATE":"2021-10-17T15:36:14","ORIGINATOR":"18
        SPCS","OBJECT_NAME":"STARLINK-2403","OBJECT_ID":"2021-018AK","CENTER_NAME":"EARTH","REF_FRAME":"TEME","TIME_SYSTEM":"UTC","MEAN_ELEMENT_THEORY":"SGP4","EPOCH":"2021-10-17T04:41:55.760928","MEAN_MOTION":15.06382848,"ECCENTRICITY":0.0001458,"INCLINATION":53.0555,"RA_OF_ASC_NODE":264.472,"ARG_OF_PERICENTER":66.1684,"MEAN_ANOMALY":293.9458,"EPHEMERIS_TYPE":0,"CLASSIFICATION_TYPE":"U","NORAD_CAT_ID":47820,"ELEMENT_SET_NO":999,"REV_AT_EPOCH":3428,"BSTAR":0.00011327,"MEAN_MOTION_DOT":0.00001405,"MEAN_MOTION_DDOT":0,"SEMIMAJOR_AXIS":6925.401,"PERIOD":95.593,"APOAPSIS":548.276,"PERIAPSIS":546.256,"OBJECT_TYPE":"PAYLOAD","RCS_SIZE":"LARGE","COUNTRY_CODE":"US","LAUNCH_DATE":"2021-03-11","SITE":"AFETR","DECAY_DATE":null,"DECAYED":0,"FILE":3167280,"GP_ID":187371727,"TLE_LINE0":"0
        STARLINK-2403","TLE_LINE1":"1 47820U 21018AK  21290.19578427  .00001405  00000-0  11327-3
        0  9997","TLE_LINE2":"2 47820  53.0555 264.4720 0001458  66.1684 293.9458
        15.06382848 34282"},"height_km":547.5874064343088,"latitude":9.506821074618994,"launch":"600f9a718f798e2a4d5f979d","longitude":159.8316763356513,"velocity_kms":7.5900669839437045,"version":"v1.0","id":"6053abab7112b20006970ec8"},{"spaceTrack":{"CCSDS_OMM_VERS":"2.0","COMMENT":"GENERATED
        VIA SPACE-TRACK.ORG API","CREATION_DATE":"2021-10-16T22:46:11","ORIGINATOR":"18
